{"type": "FeatureCollection", "features": [ {"type": "Feature", "properties": {"norad_id": 31772, "name": "FENGYUN 1C DEB", "group": "fengyun-1c-debris", "lat": -34.368437411148136, "lon": 69.11935844992674, "alt_km": 829.9056766980966, "timestamp": "2025-12-02T23:34:15.800318+00:00", "meta": {"OBJECT_NAME": "FENGYUN 1C DEB", "OBJECT_ID": "1999-025CFX", "EPOCH": "2025-12-02T05:33:26.479008", "MEAN_MOTION": 14.11635308, "ECCENTRICITY": 0.0135819, "INCLINATION": 98.4716, "RA_OF_ASC_NODE": 254.2606, "ARG_OF_PERICENTER": 143.9036, "MEAN_ANOMALY": 217.1401, "EPHEMERIS_TYPE": 0, "CLASSIFICATION_TYPE": "U", "NORAD_CAT_ID": 31772, "ELEMENT_SET_NO": 999, "REV_AT_EPOCH": 70735, "BSTAR": 0.0011634, "MEAN_MOTION_DOT": 2.268e-05, "MEAN_MOTION_DDOT": 0}, "tle": {"line1": "1 31772U 99025CFX 25336.23155647  .00002268  00000+0  11634-2 0  9991", "line2": "2 31772  98.4716 254.2606 0135819 143.9036 217.1401 14.11635308707355"}}, "geometry": {"type": "Point", "coordinates": [69.11935844992674, -34.368437411148136]}}, {"type": "Feature", "properties": {"norad_id": 31773, "name": "FENGYUN 1C DEB", "group": "fengyun-1c-debris", "lat": -49.656080055045095, "lon": -22.387520988246873, "alt_km": 664.6240243565044, "timestamp": "2025-12-02T23:34:15.800329+00:00", "meta": {"OBJECT_NAME": "FENGYUN 1C DEB", "OBJECT_ID": "1999-025CFY", "EPOCH": "2025-12-01T05:23:44.833344", "MEAN_MOTION": 14.72359777, "ECCENTRICITY": 0.0038605, "INCLINATION": 98.9488, "RA_OF_ASC_NODE": 324.9883, "ARG_OF_PERICENTER": 215.5051, "MEAN_ANOMALY": 144.3583, "EPHEMERIS_TYPE": 0, "CLASSIFICATION_TYPE": "U", "NORAD_CAT_ID": 31773, "ELEMENT_SET_NO": 999, "REV_AT_EPOCH": 65005, "BSTAR": 0.0025423, "MEAN_MOTION_DOT": 0.00016254, "MEAN_MOTION_DDOT": 0}, "tle": {"line1": "1 31773U 99025CFY 25335.22482446  .00016254  00000+0  25423-2 0  9991", "line2": "2 31773  98.9488 324.9883 0038605 215.5051 144.3583 14.72359777650053"}}, "geometry": {"type": "Point", "coordinates": [-22.387520988246873, -49.656080055045095]}}, {"type": "Feature", "properties": {"norad_id": 31776, "name": "FENGYUN 1C DEB", "group": "fengyun-1c-debris", "lat": 55.444602049628394, "lon": -130.0749362205677, "alt_km": 844.7945258758218, "timestamp": "2025-12-02T23:34:15.800340+00:00", "meta": {"OBJECT_NAME": "FENGYUN 1C DEB", "OBJECT_ID": "1999-025CGB", "EPOCH": "2025-12-01T15:32:26.394144", "MEAN_MOTION": 14.18453446, "ECCENTRICITY": 0.00544701, "INCLINATION": 99.0762, "RA_OF_ASC_NODE": 35.1395, "ARG_OF_PERICENTER": 7.0694, "MEAN_ANOMALY": 144.5464, "EPHEMERIS_TYPE": 0, "CLASSIFICATION_TYPE": "U", "NORAD_CAT_ID": 31776, "ELEMENT_SET_NO": 999, "REV_AT_EPOCH": 94723, "BSTAR": 0.0013902785, "MEAN_MOTION_DOT": 2.868e-05, "MEAN_MOTION_DDOT": 0}, "tle": {"line1": "1 31776U 99025CGB 25335.64752771  .00002868  00000+0  13903-2 0  9997", "line2": "2 31776  99.0762  35.1395 0054470   7.0694 144.5464 14.18453446947234"}}, "geometry": {"type": "Point", "coordinates": [-130.0749362205677, 55.444602049628394]}}, {"type": "Feature", "properties": {"norad_id": 31779, "name": "FENGYUN 1C DEB", "group": "fengyun-1c-debris", "lat": -22.5938205250891, "lon": -100.00690719729396, "alt_km": 844.9048128426584, "timestamp": "2025-12-02T23:34:15.800350+00:00", "meta": {"OBJECT_NAME": "FENGYUN 1C DEB", "OBJECT_ID": "1999-025CGE", "EPOCH": "2025-12-02T05:21:22.076352", "MEAN_MOTION": 14.41556435, "ECCENTRICITY": 0.0212911, "INCLINATION": 99.2972, "RA_OF_ASC_NODE": 255.2583, "ARG_OF_PERICENTER": 213.8398, "MEAN_ANOMALY": 144.905, "EPHEMERIS_TYPE": 0, "CLASSIFICATION_TYPE": "U", "NORAD_CAT_ID": 31779, "ELEMENT_SET_NO": 999, "REV_AT_EPOCH": 96858, "BSTAR": 0.0003889, "MEAN_MOTION_DOT": 1.594e-05, "MEAN_MOTION_DDOT": 0}, "tle": {"line1": "1 31779U 99025CGE 25336.22317218  .00001594  00000+0  38890-3 0  9996", "line2": "2 31779  99.2972 255.2583 0212911 213.8398 144.9050 14.41556435968584"}}, "geometry": {"type": "Point", "coordinates": [-100.00690719729396, -22.5938205250891]}}, {"type": "Feature", "properties": {"norad_id": 31780, "name": "FENGYUN 1C DEB", "group": "fengyun-1c-debris", "lat": 34.29869544818416, "lon": 121.87163032650339, "alt_km": 588.5579148119232, "timestamp": "2025-12-02T23:34:15.800360+00:00", "meta": {"OBJECT_NAME": "FENGYUN 1C DEB", "OBJECT_ID": "1999-025CGF", "EPOCH": "2025-12-01T21:16:05.176128", "MEAN_MOTION": 14.69466256, "ECCENTRICITY": 0.01511375, "INCLINATION": 99.2852, "RA_OF_ASC_NODE": 127.0337, "ARG_OF_PERICENTER": 86.3787, "MEAN_ANOMALY": 275.4685, "EPHEMERIS_TYPE": 0, "CLASSIFICATION_TYPE": "U", "NORAD_CAT_ID": 31780, "ELEMENT_SET_NO": 999, "REV_AT_EPOCH": 98338, "BSTAR": 0.00038544194, "MEAN_MOTION_DOT": 2.65e-05, "MEAN_MOTION_DDOT": 0}, "tle": {"line1": "1 31780U 99025CGF 25335.88617102  .00002650  00000+0  38544-3 0  9994", "line2": "2 31780  99.2852 127.0337 0151137  86.3787 275.4685 14.69466256983383"}}, "geometry": {"type": "Point", "coordinates": [121.87163032650339, 34.29869544818416]}}, {"type": "Feature", "properties": {"norad_id": 31781, "name": "FENGYUN 1C DEB", "group": "fengyun-1c-debris", "lat": -6.07688590814965, "lon": 148.3049894959688, "alt_km": 763.4338343342397, "timestamp": "2025-12-02T23:34:15.800371+00:00", "meta": {"OBJECT_NAME": "FENGYUN 1C DEB", "OBJECT_ID": "1999-025CGG", "EPOCH": "2025-12-02T06:36:07.026912", "MEAN_MOTION": 14.12719425, "ECCENTRICITY": 0.0203779, "INCLINATION": 99.4973, "RA_OF_ASC_NODE": 146.5341, "ARG_OF_PERICENTER": 302.7717, "MEAN_ANOMALY": 55.3963, "EPHEMERIS_TYPE": 0, "CLASSIFICATION_TYPE": "U", "NORAD_CAT_ID": 31781, "ELEMENT_SET_NO": 999, "REV_AT_EPOCH": 68200, "BSTAR": 0.0037688, "MEAN_MOTION_DOT": 8.472e-05, "MEAN_MOTION_DDOT": 0}, "tle": {"line1": "1 31781U 99025CGG 25336.27508133  .00008472  00000+0  37688-2 0  9997", "line2": "2 31781  99.4973 146.5341 0203779 302.7717  55.3963 14.12719425682005"}}, "geometry": {"type": "Point", "coordinates": [148.3049894959688, -6.07688590814965]}}, {"type": "Feature", "properties": {"norad_id": 31782, "name": "FENGYUN 1C DEB", "group": "fengyun-1c-debris", "lat": -6.510149428043918, "lon": 138.87081967348803, "alt_km": 726.3130787287673, "timestamp": "2025-12-02T23:34:15.800381+00:00", "meta": {"OBJECT_NAME": "FENGYUN 1C DEB", "OBJECT_ID": "1999-025CGH", "EPOCH": "2025-12-01T17:34:28.802784", "MEAN_MOTION": 14.36194439, "ECCENTRICITY": 0.00799495, "INCLINATION": 98.904, "RA_OF_ASC_NODE": 136.5548, "ARG_OF_PERICENTER": 29.379, "MEAN_ANOMALY": 346.2084, "EPHEMERIS_TYPE": 0, "CLASSIFICATION_TYPE": "U", "NORAD_CAT_ID": 31782, "ELEMENT_SET_NO": 999, "REV_AT_EPOCH": 96533, "BSTAR": 0.00037631205, "MEAN_MOTION_DOT": 1.091e-05, "MEAN_MOTION_DDOT": 0}, "tle": {"line1": "1 31782U 99025CGH 25335.73227781  .00001091  00000+0  37631-3 0  9994", "line2": "2 31782  98.9040 136.5548 0079949  29.3790 346.2084 14.36194439965330"}}, "geometry": {"type": "Point", "coordinates": [138.87081967348803, -6.510149428043918]}}, {"type": "Feature", "properties": {"norad_id": 31783, "name": "FENGYUN 1C DEB", "group": "fengyun-1c-debris", "lat": 43.96404165561056, "lon": 174.4798233519652, "alt_km": 818.9364676105852, "timestamp": "2025-12-02T23:34:15.800391+00:00", "meta": {"OBJECT_NAME": "FENGYUN 1C DEB", "OBJECT_ID": "1999-025CGJ", "EPOCH": "2025-12-01T11:52:09.590016", "MEAN_MOTION": 14.0879404, "ECCENTRICITY": 0.01046301, "INCLINATION": 98.6052, "RA_OF_ASC_NODE": 344.6618, "ARG_OF_PERICENTER": 81.6085, "MEAN_ANOMALY": 72.4582, "EPHEMERIS_TYPE": 0, "CLASSIFICATION_TYPE": "U", "NORAD_CAT_ID": 31783, "ELEMENT_SET_NO": 999, "REV_AT_EPOCH": 89062, "BSTAR": 0.00069283831, "MEAN_MOTION_DOT": 1.217e-05, "MEAN_MOTION_DDOT": 0}, "tle": {"line1": "1 31783U 99025CGJ 25335.49455544  .00001217  00000+0  69284-3 0  9997", "line2": "2 31783  98.6052 344.6618 0104630  81.6085  72.4582 14.08794040890628"}}, "geometry": {"type": "Point", "coordinates": [174.4798233519652, 43.96404165561056]}}, {"type": "Feature", "properties": {"norad_id": 31788, "name": "FENGYUN 1C DEB", "group": "fengyun-1c-debris", "lat": -49.25257034131321, "lon": -77.47404691603826, "alt_km": 1271.6739316253006, "timestamp": "2025-12-02T23:34:15.800401+00:00", "meta": {"OBJECT_NAME": "FENGYUN 1C DEB", "OBJECT_ID": "1999-025CGP", "EPOCH": "2025-12-02T08:28:22.090080", "MEAN_MOTION": 13.44996457, "ECCENTRICITY": 0.0464215, "INCLINATION": 102.5552, "RA_OF_ASC_NODE": 116.7288, "ARG_OF_PERICENTER": 109.7695, "MEAN_ANOMALY": 311.8083, "EPHEMERIS_TYPE": 0, "CLASSIFICATION_TYPE": "U", "NORAD_CAT_ID": 31788, "ELEMENT_SET_NO": 999, "REV_AT_EPOCH": 90465, "BSTAR": 0.0029501, "MEAN_MOTION_DOT": 3.269e-05, "MEAN_MOTION_DDOT": 0}, "tle": {"line1": "1 31788U 99025CGP 25336.35303345  .00003269  00000+0  29501-2 0  9995", "line2": "2 31788 102.5552 116.7288 0464215 109.7695 311.8083 13.44996457904651"}}, "geometry": {"type": "Point", "coordinates": [-77.47404691603826, -49.25257034131321]}}, {"type": "Feature", "properties": {"norad_id": 31805, "name": "FENGYUN 1C DEB", "group": "fengyun-1c-debris", "lat": -50.95000781674025, "lon": 131.47066724620638, "alt_km": 654.6444680229861, "timestamp": "2025-12-02T23:34:15.800412+00:00", "meta": {"OBJECT_NAME": "FENGYUN 1C DEB", "OBJECT_ID": "1999-025CGT", "EPOCH": "2025-12-01T05:23:40.108128", "MEAN_MOTION": 14.02670631, "ECCENTRICITY": 0.0447098, "INCLINATION": 98.3662, "RA_OF_ASC_NODE": 320.3008, "ARG_OF_PERICENTER": 191.6465, "MEAN_ANOMALY": 167.4086, "EPHEMERIS_TYPE": 0, "CLASSIFICATION_TYPE": "U", "NORAD_CAT_ID": 31805, "ELEMENT_SET_NO": 999, "REV_AT_EPOCH": 62202, "BSTAR": 0.0013339, "MEAN_MOTION_DOT": 4.977e-05, "MEAN_MOTION_DDOT": 0}, "tle": {"line1": "1 31805U 99025CGT 25335.22476977  .00004977  00000+0  13339-2 0  9991", "line2": "2 31805  98.3662 320.3008 0447098 191.6465 167.4086 14.02670631622027"}}, "geometry": {"type": "Point", "coordinates": [131.47066724620638, -50.95000781674025]}}]}